INTELSAT 902 (IS-902)   
1 26900U 01039A   26191.48563339 -.00000279  00000+0  00000+0 0  9997
2 26900   6.1741  71.4977 0004425  34.7826 306.8480  1.00271489 90929
INTELSAT 904 (IS-904)   
1 27380U 02007A   26191.48936007 -.00000222  00000+0  00000+0 0  9990
2 27380   6.9752  68.9011 0005441  22.8518 341.3603  1.00271875 52004
DIRECTV 5 (TEMPO 1)     
1 27426U 02023A   26191.30802150 -.00000051  00000+0  00000+0 0  9991
2 27426   4.9338  75.0208 0003043  39.1246 174.8663  1.00271025 88354
INTELSAT 905 (IS-905)   
1 27438U 02027A   26191.44350310  .00000097  00000+0  00000+0 0  9998
2 27438   6.8089  69.5162 0003650  41.2158 200.0963  1.00274751 51598
GALAXY 3C (G-3C)        
1 27445U 02030A   26191.36347307 -.00000146  00000+0  00000+0 0  9999
2 27445   3.7903  77.6748 0001536  38.3275 208.3094  1.00270956 46723
INTELSAT 906 (IS-906)   
1 27513U 02041A   26191.19955841  .00000018  00000+0  00000+0 0  9993
2 27513   5.8592  72.6383 0003959  18.7055 332.7527  1.00272124 87250
GALAXY 13 (HORIZONS-1)  
1 27954U 03044A   26191.53719076  .00000141  00000+0  00000+0 0  9999
2 27954   1.4780  83.5671 0002204  21.0209 227.2595  1.00269249 46804
INTELSAT 10-02          
1 28358U 04022A   26191.56657090 -.00000002  00000+0  00000+0 0  9992
2 28358   0.0515 260.5661 0000380 348.7370 242.1457  1.00269129 80797
DIRECTV 8               
1 28659U 05019A   26191.47202666  .00000011  00000+0  00000+0 0  9997
2 28659   0.0150  71.6501 0003043  51.6627 215.9592  1.00270861 77300
GALAXY 28 (G-28)        
1 28702U 05022A   26191.49014008 -.00000193  00000+0  00000+0 0  9995
2 28702   3.3554  78.6447 0002149  35.4139 323.7040  1.00272125 52206
GALAXY 16 (G-16)        
1 29236U 06023A   26191.47601333 -.00000117  00000+0  00000+0 0  9997
2 29236   0.0341 118.1796 0002461 359.0794 243.5028  1.00271461 73203
DIRECTV 9S              
1 29494U 06043A   26191.62591616 -.00000106  00000+0  00000+0 0  9992
2 29494   2.4783  80.6201 0005014  31.8882 300.1670  1.00270968 51614
GALAXY 17 (G-17)        
1 31307U 07016B   26191.55001750 -.00000199  00000+0  00000+0 0  9998
2 31307   3.0278  79.6059 0003581  31.4253 290.4239  1.00271070 70034
INTELSAT 11 (IS-11)     
1 32253U 07044B   26191.35734962 -.00000032  00000+0  00000+0 0  9992
2 32253   3.6226  78.3886 0003985  99.1520 263.2343  0.99050526 68684
HORIZONS-2              
1 32388U 07063B   26191.55227084 -.00000246  00000+0  00000+0 0  9993
2 32388   2.6594  80.3399 0003591  17.2436 315.9146  1.00270785 68042
DIRECTV 11              
1 32729U 08013A   26191.35275024 -.00000115  00000+0  00000+0 0  9998
2 32729   0.0387 212.3876 0000247 324.0727 139.6181  1.00270623 45829
GALAXY 18 (G-18)        
1 32951U 08024A   26191.63424444  .00000000  00000+0  00000+0 0  9992
2 32951   0.0252  38.3327 0002769  86.0431 269.5100  1.00270137 46085
GALAXY 19 (G-19)        
1 33376U 08045A   26191.54767748 -.00000129  00000+0  00000+0 0  9997
2 33376   0.0543 249.8758 0002352 227.7725 270.9740  1.00272388 65138
FM-5                    
1 35493U 09034A   26191.31906358 -.00000189  00000+0  00000+0 0  9991
2 35493   0.0334 277.7695 0000348  38.0404   1.1277  1.00270176 46870
INTELSAT 14 (IS-14)     
1 36097U 09064A   26191.48667339 -.00000263  00000+0  00000+0 0  9999
2 36097   0.0185  22.6412 0002266  92.1709 303.8111  1.00271724 60830
INTELSAT 15 (IS-15)     
1 36106U 09067A   26191.55878071 -.00000175  00000+0  00000+0 0  9990
2 36106   0.0128  45.3490 0002129  71.5116  97.9328  1.00271527 41467
DIRECTV 12              
1 36131U 09075A   26191.40395524 -.00000093  00000+0  00000+0 0  9997
2 36131   0.0378 197.5077 0000394  15.9281 117.5818  1.00270757 46787
INTELSAT 16 (IS-16)     
1 36397U 10006A   26191.55175083 -.00000235  00000+0  00000+0 0  9997
2 36397   0.0117  14.5260 0002260 117.4552 278.9210  1.00271500 59887
XM-5                    
1 37185U 10053A   26191.30635405 -.00000012  00000+0  00000+0 0  9990
2 37185   0.0614 268.0589 0001858 315.7617  59.5021  1.00272157 57714
INTELSAT 17 (IS-17)     
1 37238U 10065B   26191.61086194  .00000008  00000+0  00000+0 0  9995
2 37238   0.0162  88.5622 0002668  23.9194 101.9504  1.00271739 53485
INTELSAT 28 (IS-28)     
1 37392U 11016A   26191.44781787 -.00000217  00000+0  00000+0 0  9997
2 37392   1.8633  82.3344 0003697  37.2743 298.2524  1.00272240 53516
INTELSAT 18 (IS-18)     
1 37834U 11056A   26191.53129740  .00000063  00000+0  00000+0 0  9995
2 37834   0.0285 282.3031 0001733 203.6302 173.7835  1.00272681 54045
INTELSAT 22 (IS-22)     
1 38098U 12011A   26191.58117424  .00000000  00000+0  00000+0 0  9992
2 38098   0.0364  66.1563 0001895  64.8545  78.7989  1.00271114  7423
INTELSAT 19 (IS-19)     
1 38356U 12030A   26190.88691154 -.00000044  00000+0  00000+0 0  9998
2 38356   0.0177  25.6635 0003126  96.1223 291.3213  1.00271536 50678
INTELSAT 20 (IS-20)     
1 38740U 12043A   26190.98725301  .00000000  00000+0  00000+0 0  9993
2 38740   0.0436  68.8286 0003359 128.7460 154.2151  1.00267370 50979
INTELSAT 21 (IS-21)     
1 38749U 12045A   26191.48407338  .00000000  00000+0  00000+0 0  9997
2 38749   0.0274  37.8747 0001728  97.2713 269.5240  1.00270104 50759
