OBJECT_NAME,OBJECT_ID,EPOCH,MEAN_MOTION,ECCENTRICITY,INCLINATION,RA_OF_ASC_NODE,ARG_OF_PERICENTER,MEAN_ANOMALY,EPHEMERIS_TYPE,CLASSIFICATION_TYPE,NORAD_CAT_ID,ELEMENT_SET_NO,REV_AT_EPOCH,BSTAR,MEAN_MOTION_DOT,MEAN_MOTION_DDOT
INTELSAT 902 (IS-902),2001-039A,2026-07-10T11:39:18.724896,1.00271489,.00044252,6.1741,71.4977,34.7826,306.8480,0,U,26900,999,9092,0,-.279E-5,0
INTELSAT 904 (IS-904),2002-007A,2026-07-10T11:44:40.710048,1.00271875,.00054412,6.9752,68.9011,22.8518,341.3603,0,U,27380,999,5200,0,-.222E-5,0
DIRECTV 5 (TEMPO 1),2002-023A,2026-07-10T07:23:33.057600,1.00271025,.00030435,4.9338,75.0208,39.1246,174.8663,0,U,27426,999,8835,0,-.51E-6,0
INTELSAT 905 (IS-905),2002-027A,2026-07-10T10:38:38.667840,1.00274751,.00036504,6.8089,69.5162,41.2158,200.0963,0,U,27438,999,5159,0,.97E-6,0
GALAXY 3C (G-3C),2002-030A,2026-07-10T08:43:24.073248,1.00270956,.00015366,3.7903,77.6748,38.3275,208.3094,0,U,27445,999,4672,0,-.146E-5,0
INTELSAT 906 (IS-906),2002-041A,2026-07-10T04:47:21.846624,1.00272124,.00039597,5.8592,72.6383,18.7055,332.7527,0,U,27513,999,8725,0,.18E-6,0
GALAXY 13 (HORIZONS-1),2003-044A,2026-07-10T12:53:33.281664,1.00269249,.00022042,1.4780,83.5671,21.0209,227.2595,0,U,27954,999,4680,0,.141E-5,0
INTELSAT 10-02,2004-022A,2026-07-10T13:35:51.725760,1.00269129,.00003805,0.0515,260.5661,348.7370,242.1457,0,U,28358,999,8079,0,-.2E-7,0
DIRECTV 8,2005-019A,2026-07-10T11:19:43.103424,1.00270861,.00030431,0.0150,71.6501,51.6627,215.9592,0,U,28659,999,7730,0,.11E-6,0
GALAXY 28 (G-28),2005-022A,2026-07-10T11:45:48.102912,1.00272125,.00021497,3.3554,78.6447,35.4139,323.7040,0,U,28702,999,5220,0,-.193E-5,0
GALAXY 16 (G-16),2006-023A,2026-07-10T11:25:27.551712,1.00271461,.00024611,0.0341,118.1796,359.0794,243.5028,0,U,29236,999,7320,0,-.117E-5,0
DIRECTV 9S,2006-043A,2026-07-10T15:01:19.156224,1.00270968,.00050147,2.4783,80.6201,31.8882,300.1670,0,U,29494,999,5161,0,-.106E-5,0
GALAXY 17 (G-17),2007-016B,2026-07-10T13:12:01.512000,1.00271070,.00035812,3.0278,79.6059,31.4253,290.4239,0,U,31307,999,7003,0,-.199E-5,0
INTELSAT 11 (IS-11),2007-044B,2026-07-10T08:34:35.007168,0.99050526,.00039855,3.6226,78.3886,99.1520,263.2343,0,U,32253,999,6868,0,-.32E-6,0
HORIZONS-2,2007-063B,2026-07-10T13:15:16.200576,1.00270785,.00035911,2.6594,80.3399,17.2436,315.9146,0,U,32388,999,6804,0,-.246E-5,0
DIRECTV 11,2008-013A,2026-07-10T08:27:57.620736,1.00270623,.00002476,0.0387,212.3876,324.0727,139.6181,0,U,32729,999,4582,0,-.115E-5,0
GALAXY 18 (G-18),2008-024A,2026-07-10T15:13:18.719616,1.00270137,.00027698,0.0252,38.3327,86.0431,269.5100,0,U,32951,999,4608,0,0,0
GALAXY 19 (G-19),2008-045A,2026-07-10T13:08:39.334272,1.00272388,.00023527,0.0543,249.8758,227.7725,270.9740,0,U,33376,999,6513,0,-.129E-5,0
FM-5,2009-034A,2026-07-10T07:39:27.093312,1.00270176,.00003487,0.0334,277.7695,38.0404,1.1277,0,U,35493,999,4687,0,-.189E-5,0
INTELSAT 14 (IS-14),2009-064A,2026-07-10T11:40:48.580896,1.00271724,.00022665,0.0185,22.6412,92.1709,303.8111,0,U,36097,999,6083,0,-.263E-5,0
INTELSAT 15 (IS-15),2009-067A,2026-07-10T13:24:38.653344,1.00271527,.00021295,0.0128,45.3490,71.5116,97.9328,0,U,36106,999,4146,0,-.175E-5,0
DIRECTV 12,2009-075A,2026-07-10T09:41:41.732736,1.00270757,.00003948,0.0378,197.5077,15.9281,117.5818,0,U,36131,999,4678,0,-.93E-6,0
INTELSAT 16 (IS-16),2010-006A,2026-07-10T13:14:31.271712,1.00271500,.000226,0.0117,14.5260,117.4552,278.9210,0,U,36397,999,5988,0,-.235E-5,0
XM-5,2010-053A,2026-07-10T07:21:08.989920,1.00272157,.00018582,0.0614,268.0589,315.7617,59.5021,0,U,37185,999,5771,0,-.12E-6,0
INTELSAT 17 (IS-17),2010-065B,2026-07-10T14:39:38.471616,1.00271739,.00026682,0.0162,88.5622,23.9194,101.9504,0,U,37238,999,5348,0,.8E-7,0
INTELSAT 28 (IS-28),2011-016A,2026-07-10T10:44:51.463968,1.00272240,.00036978,1.8633,82.3344,37.2743,298.2524,0,U,37392,999,5351,0,-.217E-5,0
INTELSAT 18 (IS-18),2011-056A,2026-07-10T12:45:04.095360,1.00272681,.00017331,0.0285,282.3031,203.6302,173.7835,0,U,37834,999,5404,0,.63E-6,0
INTELSAT 22 (IS-22),2012-011A,2026-07-10T13:56:53.454336,1.00271114,.00018954,0.0364,66.1563,64.8545,78.7989,0,U,38098,999,742,0,0,0
INTELSAT 19 (IS-19),2012-030A,2026-07-09T21:17:09.157056,1.00271536,.00031269,0.0177,25.6635,96.1223,291.3213,0,U,38356,999,5067,0,-.44E-6,0
INTELSAT 20 (IS-20),2012-043A,2026-07-09T23:41:38.660064,1.00267370,.00033596,0.0436,68.8286,128.7460,154.2151,0,U,38740,999,5097,0,0,0
INTELSAT 21 (IS-21),2012-045A,2026-07-10T11:37:03.940032,1.00270104,.00017289,0.0274,37.8747,97.2713,269.5240,0,U,38749,999,5075,0,0,0
